NORAD_CAT_ID,OBJECT_NAME,OBJECT_TYPE,EPOCH,MEAN_MOTION,ECCENTRICITY,INCLINATION,RA_OF_ASC_NODE,ARG_OF_PERICENTER,MEAN_ANOMALY,BSTAR,MEAN_MOTION_DOT,MEAN_MOTION_DDOT,TLE_LINE0,TLE_LINE1,TLE_LINE2,SEMIMAJOR_AXIS,PERIOD,APOGEE,PERIGEE,DECAYED
52134.0,STARLINK-3721,PAYLOAD,2023-09-08 14:50:21,15.08841109,0.0001535,53.2175,208.057,90.7554,269.3614,6.7471e-05,7.86e-06,0.0,0 STARLINK-3721,1 52134U 22029AY  23251.61829868  .00000786  00000-0  67471-4 0  9991,2 52134  53.2175 208.0570 0001535  90.7554 269.3614 15.08841109 83094,6917.877,95.437,540.804,538.68,0.0
52134.0,STARLINK-3721,PAYLOAD,2023-09-09 06:44:12,15.08842306,0.000153,53.2177,205.0825,93.4206,266.6962,8.8459e-05,1.12e-05,0.0,0 STARLINK-3721,1 52134U 22029AY  23252.28069668  .00001120  00000-0  88459-4 0  9991,2 52134  53.2177 205.0825 0001530  93.4206 266.6962 15.08842306 83192,6917.873,95.437,540.797,538.68,0.0
52134.0,STARLINK-3721,PAYLOAD,2023-09-10 06:34:59,15.08842153,0.0001545,53.2185,200.6205,100.5827,259.534,4.6014e-05,4.44e-06,0.0,0 STARLINK-3721,1 52134U 22029AY  23253.27429761  .00000444  00000-0  46014-4 0  9994,2 52134  53.2185 200.6205 0001545 100.5827 259.5340 15.08842153 83347,6917.874,95.437,540.808,538.67,0.0
52134.0,STARLINK-3721,PAYLOAD,2023-09-10 19:18:04,15.08844019,0.0001466,53.218,198.2426,101.9861,258.1296,4.1604e-05,3.74e-06,0.0,0 STARLINK-3721,1 52134U 22029AY  23253.80421569  .00000374  00000-0  41604-4 0  9993,2 52134  53.2180 198.2426 0001466 101.9861 258.1296 15.08844019 83421,6917.868,95.437,540.747,538.719,0.0
52134.0,STARLINK-3721,PAYLOAD,2023-09-11 03:15:00,15.08835334,0.0001337,53.2173,196.7574,90.8567,269.2579,-2.4222e-05,-6.73e-06,0.0,0 STARLINK-3721,1 52134U 22029AY  23254.13542695 -.00000673  00000-0 -24222-4 0  9995,2 52134  53.2173 196.7574 0001337  90.8567 269.2579 15.08835334 83478,6917.895,95.438,540.685,538.835,0.0
52134.0,STARLINK-3721,PAYLOAD,2023-09-11 12:47:19,15.08838757,0.0001329,53.2173,194.9733,90.2635,269.8509,1.8398e-05,5e-08,0.0,0 STARLINK-3721,1 52134U 22029AY  23254.53286443  .00000005  00000-0  18398-4 0  9999,2 52134  53.2173 194.9733 0001329  90.2635 269.8509 15.08838757 83534,6917.884,95.438,540.669,538.83,0.0
52134.0,STARLINK-3721,PAYLOAD,2023-09-12 01:30:24,15.08846269,0.0001412,53.2182,192.5965,102.1276,257.9874,8.4648e-05,1.06e-05,0.0,0 STARLINK-3721,1 52134U 22029AY  23255.06277852  .00001060  00000-0  84648-4 0  9995,2 52134  53.2182 192.5965 0001412 102.1276 257.9874 15.08846269 83611,6917.861,95.437,540.703,538.749,0.0
52134.0,STARLINK-3721,PAYLOAD,2023-09-12 06:16:33,15.08851387,0.000137,53.2182,191.7036,95.7985,264.3163,0.00012366,1.681e-05,0.0,0 STARLINK-3721,1 52134U 22029AY  23255.26149385  .00001681  00000-0  12366-3 0  9992,2 52134  53.2182 191.7036 0001370  95.7985 264.3163 15.08851387 83641,6917.846,95.437,540.658,538.763,0.0
52134.0,STARLINK-3721,PAYLOAD,2023-09-13 02:56:34,15.08842606,0.0001363,53.218,187.8397,95.3928,264.722,0.00013949,1.933e-05,0.0,0 STARLINK-3721,1 52134U 22029AY  23256.12262254  .00001933  00000-0  13949-3 0  9997,2 52134  53.2180 187.8397 0001363  95.3928 264.7220 15.08842606 83776,6917.872,95.437,540.68,538.795,0.0
52134.0,STARLINK-3721,PAYLOAD,2023-09-13 04:31:57,15.08845672,0.0001466,53.2189,187.5424,91.5428,268.5732,0.0001766,2.524e-05,0.0,0 STARLINK-3721,1 52134U 22029AY  23256.18886066  .00002524  00000-0  17660-3 0  9997,2 52134  53.2189 187.5424 0001466  91.5428 268.5732 15.08845672 83787,6917.863,95.437,540.742,538.714,0.0
52134.0,STARLINK-3721,PAYLOAD,2023-09-14 02:47:22,15.0883509,0.000166,53.2193,183.3765,75.5443,284.5733,-5.3755e-05,-1.143e-05,0.0,0 STARLINK-3721,1 52134U 22029AY  23257.11623781 -.00001143  00000-0 -53755-4 0  9998,2 52134  53.2193 183.3765 0001660  75.5443 284.5733 15.08835090 83927,6917.895,95.438,540.909,538.612,0.0
52134.0,STARLINK-3721,PAYLOAD,2023-09-14 04:22:45,15.08837582,0.0001421,53.2183,183.0798,88.3631,271.7524,-5.7165e-05,-1.198e-05,0.0,0 STARLINK-3721,1 52134U 22029AY  23257.18247514 -.00001198  00000-0 -57165-4 0  9990,2 52134  53.2183 183.0798 0001421  88.3631 271.7524 15.08837582 83930,6917.888,95.438,540.736,538.77,0.0
52134.0,STARLINK-3721,PAYLOAD,2023-09-15 02:38:08,15.08856799,0.0001353,53.218,178.9176,93.0796,267.0351,0.0001401,1.943e-05,0.0,0 STARLINK-3721,1 52134U 22029AY  23258.10982125  .00001943  00000-0  14010-3 0  9994,2 52134  53.2180 178.9176 0001353  93.0796 267.0351 15.08856799 84072,6917.829,95.436,540.63,538.758,0.0
52134.0,STARLINK-3721,PAYLOAD,2023-09-15 04:13:31,15.08858414,0.0001338,53.2179,178.6201,92.724,267.3905,0.00015534,2.186e-05,0.0,0 STARLINK-3721,1 52134U 22029AY  23258.17606021  .00002186  00000-0  15534-3 0  9991,2 52134  53.2179 178.6201 0001338  92.7240 267.3905 15.08858414 84084,6917.824,95.436,540.615,538.764,0.0
52134.0,STARLINK-3721,PAYLOAD,2023-09-15 18:32:00,15.08842777,0.0001301,53.2174,175.9424,103.8283,256.2854,0.00014092,1.956e-05,0.0,0 STARLINK-3721,1 52134U 22029AY  23258.77222896  .00001956  00000-0  14092-3 0  9993,2 52134  53.2174 175.9424 0001301 103.8283 256.2854 15.08842777 84172,6917.872,95.437,540.637,538.837,0.0
52134.0,STARLINK-3721,PAYLOAD,2023-09-16 04:04:18,15.08849126,0.0001278,53.2175,174.1584,103.4877,256.6257,0.00017011,2.421e-05,0.0,0 STARLINK-3721,1 52134U 22029AY  23259.16966338  .00002421  00000-0  17011-3 0  9995,2 52134  53.2175 174.1584 0001278 103.4877 256.6257 15.08849126 84232,6917.852,95.437,540.602,538.833,0.0
52134.0,STARLINK-3721,PAYLOAD,2023-09-17 00:44:19,15.08848197,0.0001271,53.2179,170.2924,107.0523,253.0608,2.656e-05,1.35e-06,0.0,0 STARLINK-3721,1 52134U 22029AY  23260.03078644  .00000135  00000-0  26560-4 0  9997,2 52134  53.2179 170.2924 0001271 107.0523 253.0608 15.08848197 84364,6917.855,95.437,540.6,538.841,0.0
52134.0,STARLINK-3721,PAYLOAD,2023-09-17 03:55:06,15.08844684,0.0001297,53.2179,169.6968,113.5075,246.6054,0.00013827,1.914e-05,0.0,0 STARLINK-3721,1 52134U 22029AY  23260.16326593  .00001914  00000-0  13827-3 0  9997,2 52134  53.2179 169.6968 0001297 113.5075 246.6054 15.08844684 84388,6917.866,95.437,540.628,538.834,0.0
52134.0,STARLINK-3721,PAYLOAD,2023-09-18 02:10:29,15.08853892,0.0001523,53.2186,165.5333,106.445,253.671,7.2533e-05,8.67e-06,0.0,0 STARLINK-3721,1 52134U 22029AY  23261.09061935  .00000867  00000-0  72533-4 0  9992,2 52134  53.2186 165.5333 0001523 106.4450 253.6710 15.08853892 84521,6917.838,95.437,540.757,538.649,0.0
52134.0,STARLINK-3721,PAYLOAD,2023-09-18 03:45:52,15.08853747,0.0001427,53.2185,165.2359,105.2589,254.8561,7.1909e-05,8.57e-06,0.0,0 STARLINK-3721,1 52134U 22029AY  23261.15685896  .00000857  00000-0  71909-4 0  9992,2 52134  53.2185 165.2359 0001427 105.2589 254.8561 15.08853747 84535,6917.838,95.437,540.691,538.716,0.0
52134.0,STARLINK-3721,PAYLOAD,2023-09-18 21:15:07,15.08840045,0.0001624,53.2178,161.9634,120.5577,239.5576,7.3496e-05,8.82e-06,0.0,0 STARLINK-3721,1 52134U 22029AY  23261.88550746  .00000882  00000-0  73496-4 0  9998,2 52134  53.2178 161.9634 0001624 120.5577 239.5576 15.08840045 84647,6917.88,95.438,540.869,538.622,0.0
52134.0,STARLINK-3721,PAYLOAD,2023-09-19 02:01:16,15.0885291,0.0001221,53.2168,161.074,88.5728,271.5404,0.00023134,3.397e-05,0.0,0 STARLINK-3721,1 52134U 22029AY  23262.08422123  .00003397  00000-0  23134-3 0  9995,2 52134  53.2168 161.0740 0001221  88.5728 271.5404 15.08852910 84672,6917.841,95.437,540.551,538.861,0.0
52134.0,STARLINK-3721,PAYLOAD,2023-09-20 09:48:58,15.08847337,0.0001529,53.2176,155.1273,82.0535,278.063,2.8078e-05,1.59e-06,0.0,0 STARLINK-3721,1 52134U 22029AY  23263.40901520  .00000159  00000-0  28078-4 0  9991,2 52134  53.2176 155.1273 0001529  82.0535 278.0630 15.08847337 84874,6917.858,95.437,540.781,538.665,0.0
52134.0,STARLINK-3721,PAYLOAD,2023-09-20 20:56:42,15.08813499,0.0001602,53.2173,153.0487,86.0163,274.1012,-0.0004511,-7.455e-05,0.0,0 STARLINK-3721,1 52134U 22029AY  23263.87271888 -.00007455  00000-0 -45110-3 0  9992,2 52134  53.2173 153.0487 0001602  86.0163 274.1012 15.08813499 84949,6917.961,95.439,540.935,538.718,0.0
52134.0,STARLINK-3721,PAYLOAD,2023-09-21 01:42:52,15.08815403,0.0001572,53.2172,152.1555,80.7825,279.3345,-0.00039165,-6.511e-05,0.0,0 STARLINK-3721,1 52134U 22029AY  23264.07144034 -.00006511  00000-0 -39165-3 0  9992,2 52134  53.2172 152.1555 0001572  80.7825 279.3345 15.08815403 84972,6917.956,95.439,540.908,538.733,0.0
52134.0,STARLINK-3721,PAYLOAD,2023-09-21 03:18:15,15.0881702,0.0001567,53.217,151.8567,78.5509,281.5659,-0.00036603,-6.105e-05,0.0,0 STARLINK-3721,1 52134U 22029AY  23264.13768023 -.00006105  00000-0 -36603-3 0  9992,2 52134  53.2170 151.8567 0001567  78.5509 281.5659 15.08817020 84988,6917.951,95.439,540.9,538.732,0.0
52134.0,STARLINK-3721,PAYLOAD,2023-09-21 22:22:53,15.08837915,0.0001529,53.2169,148.2897,86.0064,274.1103,2.0268e-05,3.5e-07,0.0,0 STARLINK-3721,1 52134U 22029AY  23264.93255812  .00000035  00000-0  20268-4 0  9992,2 52134  53.2169 148.2897 0001529  86.0064 274.1103 15.08837915 85102,6917.887,95.438,540.81,538.694,0.0
52134.0,STARLINK-3721,PAYLOAD,2023-09-22 01:33:39,15.08840956,0.000148,53.2163,147.6943,83.0711,277.045,0.00038656,5.87e-05,0.0,0 STARLINK-3721,1 52134U 22029AY  23265.06504040  .00005870  00000-0  38656-3 0  9998,2 52134  53.2163 147.6943 0001480  83.0711 277.0450 15.08840956 85121,6917.877,95.437,540.766,538.719,0.0
52134.0,STARLINK-3721,PAYLOAD,2023-09-22 22:13:40,15.08863962,0.0001495,53.2155,143.8287,83.2913,276.825,0.00096677,0.00015142,0.0,0 STARLINK-3721,1 52134U 22029AY  23265.92615953  .00015142  00000-0  96677-3 0  9999,2 52134  53.2155 143.8287 0001495  83.2913 276.8250 15.08863962 85254,6917.807,95.436,540.706,538.638,0.0
52134.0,STARLINK-3721,PAYLOAD,2023-09-23 01:24:26,15.08871608,0.0001481,53.2158,143.2334,83.9787,276.1374,0.0011595,0.0001823,0.0,0 STARLINK-3721,1 52134U 22029AY  23266.05863669  .00018230  00000-0  11595-2 0  9999,2 52134  53.2158 143.2334 0001481  83.9787 276.1374 15.08871608 85273,6917.784,95.436,540.673,538.624,0.0
